[{"OBJECT_NAME":"STARLINK-2442","OBJECT_ID":"2021-027Q","EPOCH":"2026-03-10T00:00:02.999808","MEAN_MOTION":15.12843694,"ECCENTRICITY":0.00016767,"INCLINATION":53.0809,"RA_OF_ASC_NODE":150.1574,"ARG_OF_PERICENTER":67.9437,"MEAN_ANOMALY":29.2059,"EPHEMERIS_TYPE":0,"CLASSIFICATION_TYPE":"U","NORAD_CAT_ID":48106,"ELEMENT_SET_NO":999,"REV_AT_EPOCH":580,"BSTAR":0.075140928,"MEAN_MOTION_DOT":0.01463566,"MEAN_MOTION_DDOT":0},{"OBJECT_NAME":"HERMES-6","OBJECT_ID":"2025-052BK","EPOCH":"2026-03-09T21:29:23.907840","MEAN_MOTION":15.21631048,"ECCENTRICITY":0.00073357,"INCLINATION":97.4102,"RA_OF_ASC_NODE":322.8569,"ARG_OF_PERICENTER":144.5073,"MEAN_ANOMALY":215.6652,"EPHEMERIS_TYPE":0,"CLASSIFICATION_TYPE":"U","NORAD_CAT_ID":63489,"ELEMENT_SET_NO":999,"REV_AT_EPOCH":5472,"BSTAR":0.00042019054,"MEAN_MOTION_DOT":9.433e-5,"MEAN_MOTION_DDOT":0}]
